[{"OBJECT_NAME":"TIANMU-1 19","OBJECT_ID":"2023-208A","EPOCH":"2026-03-09T22:13:36.801696","MEAN_MOTION":15.2984143,"ECCENTRICITY":0.00039292,"INCLINATION":97.4383,"RA_OF_ASC_NODE":184.9132,"ARG_OF_PERICENTER":316.2611,"MEAN_ANOMALY":43.8317,"EPHEMERIS_TYPE":0,"CLASSIFICATION_TYPE":"U","NORAD_CAT_ID":58660,"ELEMENT_SET_NO":999,"REV_AT_EPOCH":12214,"BSTAR":0.00040995676,"MEAN_MOTION_DOT":0.00011779,"MEAN_MOTION_DDOT":0},{"OBJECT_NAME":"STARLINK-34530","OBJECT_ID":"2025-133V","EPOCH":"2026-03-09T09:37:44.327136","MEAN_MOTION":15.3020525,"ECCENTRICITY":0.00012923,"INCLINATION":53.1589,"RA_OF_ASC_NODE":118.1746,"ARG_OF_PERICENTER":142.0568,"MEAN_ANOMALY":218.0524,"EPHEMERIS_TYPE":0,"CLASSIFICATION_TYPE":"U","NORAD_CAT_ID":64491,"ELEMENT_SET_NO":999,"REV_AT_EPOCH":4112,"BSTAR":0.00067541763,"MEAN_MOTION_DOT":0.00019701,"MEAN_MOTION_DDOT":0}]
